NORAD_CAT_ID,OBJECT_NAME,OBJECT_TYPE,EPOCH,MEAN_MOTION,ECCENTRICITY,INCLINATION,RA_OF_ASC_NODE,ARG_OF_PERICENTER,MEAN_ANOMALY,BSTAR,MEAN_MOTION_DOT,MEAN_MOTION_DDOT,TLE_LINE0,TLE_LINE1,TLE_LINE2,SEMIMAJOR_AXIS,PERIOD,APOGEE,PERIGEE,DECAYED
50158.0,STARLINK-3309,PAYLOAD,2024-03-28 14:41:10,15.08848765,0.0001832,53.2177,211.2816,92.0495,268.0707,5.5461e-05,5.95e-06,0.0,0 STARLINK-3309,1 50158U 21125C   24088.61192190  .00000595  00000-0  55461-4 0  9995,2 50158  53.2177 211.2816 0001832  92.0495 268.0707 15.08848765129172,6917.854,95.437,540.986,538.451,0.0
50158.0,STARLINK-3309,PAYLOAD,2024-03-29 12:56:34,15.08842069,0.0001891,53.218,207.1191,89.1182,271.0026,6.8596e-05,8.04e-06,0.0,0 STARLINK-3309,1 50158U 21125C   24089.53928463  .00000804  00000-0  68596-4 0  9993,2 50158  53.2180 207.1191 0001891  89.1182 271.0026 15.08842069126166,6917.874,95.437,541.047,538.431,0.0
50158.0,STARLINK-3309,PAYLOAD,2024-03-29 17:42:43,15.08846714,0.0001539,53.2182,206.2256,93.4785,266.6384,2.557e-05,1.19e-06,0.0,0 STARLINK-3309,1 50158U 21125C   24089.73799963  .00000119  00000-0  25570-4 0  9990,2 50158  53.2182 206.2256 0001539  93.4785 266.6384 15.08846714129347,6917.86,95.437,540.79,538.66,0.0
50158.0,STARLINK-3309,PAYLOAD,2024-03-30 12:47:21,15.08830765,0.0001727,53.2174,202.6556,104.0603,256.0581,3.6794e-05,2.97e-06,0.0,0 STARLINK-3309,1 50158U 21125C   24090.53288758  .00000297  00000-0  36794-4 0  9992,2 50158  53.2174 202.6556 0001727 104.0603 256.0581 15.08830765126313,6917.909,95.438,540.968,538.579,0.0
50158.0,STARLINK-3309,PAYLOAD,2024-03-30 14:22:44,15.08828679,0.0001499,53.2172,202.3621,89.2877,270.8287,6.5136e-05,7.49e-06,0.0,0 STARLINK-3309,1 50158U 21125C   24090.59912954  .00000749  00000-0  65136-4 0  9994,2 50158  53.2172 202.3621 0001499  89.2877 270.8287 15.08828679129472,6917.915,95.438,540.817,538.743,0.0
50158.0,STARLINK-3309,PAYLOAD,2024-03-30 23:55:02,15.08842422,0.0001269,53.2184,200.5779,90.4608,269.653,6.628e-05,7.67e-06,0.0,0 STARLINK-3309,1 50158U 21125C   24090.99656216  .00000767  00000-0  66280-4 0  9995,2 50158  53.2184 200.5779 0001269  90.4608 269.6530 15.08842422126386,6917.873,95.437,540.616,538.86,0.0
50158.0,STARLINK-3309,PAYLOAD,2024-03-31 14:13:31,15.08838083,0.0001802,53.2193,197.9067,105.5671,254.552,0.00013811,1.911e-05,0.0,0 STARLINK-3309,1 50158U 21125C   24091.59272228  .00001911  00000-0  13811-3 0  9992,2 50158  53.2193 197.9067 0001802 105.5671 254.5520 15.08838083129626,6917.886,95.438,540.998,538.505,0.0
50158.0,STARLINK-3309,PAYLOAD,2024-03-31 17:24:17,15.08842937,0.0001559,53.2181,197.3064,102.6934,257.4232,0.00013811,1.911e-05,0.0,0 STARLINK-3309,1 50158U 21125C   24091.72519810  .00001911  00000-0  13811-3 0  9998,2 50158  53.2181 197.3064 0001559 102.6934 257.4232 15.08842937129640,6917.871,95.437,540.815,538.658,0.0
50158.0,STARLINK-3309,PAYLOAD,2024-03-31 23:45:48,15.08854205,0.0001491,53.2184,196.1178,88.5346,271.5817,0.00016168,2.287e-05,0.0,0 STARLINK-3309,1 50158U 21125C   24091.99014880  .00002287  00000-0  16168-3 0  9999,2 50158  53.2184 196.1178 0001491  88.5346 271.5817 15.08854205126532,6917.837,95.437,540.733,538.671,0.0
50158.0,STARLINK-3309,PAYLOAD,2024-04-01 12:28:56,15.08820636,0.0001787,53.2183,193.7386,97.8506,262.2689,1.1294e-05,-1.08e-06,0.0,0 STARLINK-3309,1 50158U 21125C   24092.52009807 -.00000108  00000-0  11294-4 0  9999,2 50158  53.2183 193.7386 0001787  97.8506 262.2689 15.08820636126618,6917.94,95.439,541.041,538.568,0.0
50158.0,STARLINK-3309,PAYLOAD,2024-04-01 14:04:19,15.08821906,0.0001637,53.2181,193.4427,85.8316,274.2863,6.6815e-06,-1.82e-06,0.0,0 STARLINK-3309,1 50158U 21125C   24092.58633890 -.00000182  00000-0  66815-5 0  9992,2 50158  53.2181 193.4427 0001637  85.8316 274.2863 15.08821906129777,6917.936,95.439,540.933,538.668,0.0
50158.0,STARLINK-3309,PAYLOAD,2024-04-01 23:36:37,15.08837741,0.0001723,53.2187,191.6578,84.5421,275.5768,5.7696e-05,6.3e-06,0.0,0 STARLINK-3309,1 50158U 21125C   24092.98376966  .00000630  00000-0  57696-4 0  9997,2 50158  53.2187 191.6578 0001723  84.5421 275.5768 15.08837741126688,6917.887,95.438,540.944,538.56,0.0
50158.0,STARLINK-3309,PAYLOAD,2024-04-02 12:19:43,15.08835793,0.0001591,53.2182,189.2793,80.4547,279.6625,-3.4926e-06,-3.44e-06,0.0,0 STARLINK-3309,1 50158U 21125C   24093.51369490 -.00000344  00000-0 -34926-5 0  9997,2 50158  53.2182 189.2793 0001591  80.4547 279.6625 15.08835793129913,6917.893,95.438,540.859,538.658,0.0
50158.0,STARLINK-3309,PAYLOAD,2024-04-02 13:55:06,15.0883729,0.0001433,53.2175,188.9818,80.1694,279.9459,1.0456e-05,-1.22e-06,0.0,0 STARLINK-3309,1 50158U 21125C   24093.57993352 -.00000122  00000-0  10456-4 0  9997,2 50158  53.2175 188.9818 0001433  80.1694 279.9459 15.08837290129927,6917.889,95.438,540.745,538.762,0.0
50158.0,STARLINK-3309,PAYLOAD,2024-04-02 23:27:24,15.08850823,0.0001514,53.2187,187.1981,81.2686,278.8478,5.6022e-05,6.04e-06,0.0,0 STARLINK-3309,1 50158U 21125C   24093.97736334  .00000604  00000-0  56022-4 0  9999,2 50158  53.2187 187.1981 0001514  81.2686 278.8478 15.08850823126838,6917.847,95.437,540.76,538.665,0.0
50158.0,STARLINK-3309,PAYLOAD,2024-04-03 12:10:29,15.08837406,0.0001498,53.2175,184.8209,80.7958,279.3204,0.00023377,3.434e-05,0.0,0 STARLINK-3309,1 50158U 21125C   24094.50728839  .00003434  00000-0  23377-3 0  9990,2 50158  53.2175 184.8209 0001498  80.7958 279.3204 15.08837406126913,6917.888,95.438,540.79,538.717,0.0
50158.0,STARLINK-3309,PAYLOAD,2024-04-03 15:21:15,15.08844128,0.0001451,53.2168,184.2244,76.191,283.9243,0.00020995,3.055e-05,0.0,0 STARLINK-3309,1 50158U 21125C   24094.63976509  .00003055  00000-0  20995-3 0  9995,2 50158  53.2168 184.2244 0001451  76.1910 283.9243 15.08844128130080,6917.868,95.437,540.737,538.729,0.0
50158.0,STARLINK-3309,PAYLOAD,2024-04-04 12:01:16,15.08841383,0.000118,53.2166,180.3564,87.6716,272.4411,2.938e-05,1.8e-06,0.0,0 STARLINK-3309,1 50158U 21125C   24095.50088932  .00000180  00000-0  29380-4 0  9990,2 50158  53.2166 180.3564 0001180  87.6716 272.4411 15.08841383130215,6917.876,95.437,540.557,538.925,0.0
50158.0,STARLINK-3309,PAYLOAD,2024-04-05 05:30:30,15.08843466,0.0001284,53.2156,177.087,84.5531,275.5608,6.6552e-05,7.72e-06,0.0,0 STARLINK-3309,1 50158U 21125C   24096.22952504  .00000772  00000-0  66552-4 0  9994,2 50158  53.2156 177.0870 0001284  84.5531 275.5608 15.08843466127170,6917.87,95.437,540.623,538.847,0.0
50158.0,STARLINK-3309,PAYLOAD,2024-04-05 11:52:03,15.08846605,0.0001251,53.2171,175.8966,89.6035,270.51,9.3816e-05,1.206e-05,0.0,0 STARLINK-3309,1 50158U 21125C   24096.49448134  .00001206  00000-0  93816-4 0  9998,2 50158  53.2171 175.8966 0001251  89.6035 270.5100 15.08846605130363,6917.86,95.437,540.591,538.86,0.0
50158.0,STARLINK-3309,PAYLOAD,2024-04-06 08:32:04,15.08837326,0.0001425,53.2176,172.0302,96.8899,263.2255,5.3444e-05,5.63e-06,0.0,0 STARLINK-3309,1 50158U 21125C   24097.35560594  .00000563  00000-0  53444-4 0  9997,2 50158  53.2176 172.0302 0001425  96.8899 263.2255 15.08837326127346,6917.889,95.438,540.739,538.768,0.0
50158.0,STARLINK-3309,PAYLOAD,2024-04-07 09:58:15,15.08834203,0.0001491,53.2177,167.2726,96.0127,264.1035,-3.455e-05,-8.38e-06,0.0,0 STARLINK-3309,1 50158U 21125C   24098.41545311 -.00000838  00000-0 -34550-4 0  9999,2 50158  53.2177 167.2726 0001491  96.0127 264.1035 15.08834203127507,6917.898,95.438,540.795,538.732,0.0
50158.0,STARLINK-3309,PAYLOAD,2024-04-07 11:33:38,15.088338,0.0001429,53.2175,166.9768,90.9488,269.1668,-3.6141e-05,-8.63e-06,0.0,0 STARLINK-3309,1 50158U 21125C   24098.48169394 -.00000863  00000-0 -36141-4 0  9995,2 50158  53.2175 166.9768 0001429  90.9488 269.1668 15.08833800130661,6917.899,95.438,540.753,538.776,0.0
50158.0,STARLINK-3309,PAYLOAD,2024-04-07 21:05:56,15.08836954,0.0001465,53.2181,165.1925,89.5087,270.6073,1.0668e-05,-1.18e-06,0.0,0 STARLINK-3309,1 50158U 21125C   24098.87913151 -.00000118  00000-0  10668-4 0  9994,2 50158  53.2181 165.1925 0001465  89.5087 270.6073 15.08836954130720,6917.89,95.438,540.768,538.741,0.0
50158.0,STARLINK-3309,PAYLOAD,2024-04-08 11:24:25,15.08838189,0.0001559,53.2179,162.5164,87.5308,272.5862,0.00012613,1.72e-05,0.0,0 STARLINK-3309,1 50158U 21125C   24099.47528949  .00001720  00000-0  12613-3 0  9998,2 50158  53.2179 162.5164 0001559  87.5308 272.5862 15.08838189127669,6917.886,95.438,540.829,538.672,0.0
50158.0,STARLINK-3309,PAYLOAD,2024-04-08 20:56:43,15.08840181,0.0001602,53.2182,160.7324,87.2526,272.865,0.00015512,2.182e-05,0.0,0 STARLINK-3309,1 50158U 21125C   24099.87272777  .00002182  00000-0  15512-3 0  9991,2 50158  53.2182 160.7324 0001602  87.2526 272.8650 15.08840181130879,6917.88,95.438,540.853,538.637,0.0
50158.0,STARLINK-3309,PAYLOAD,2024-04-09 09:39:49,15.08832854,0.0001724,53.2188,158.3543,90.0186,270.1004,8.4532e-05,1.057e-05,0.0,0 STARLINK-3309,1 50158U 21125C   24100.40265664  .00001057  00000-0  84532-4 0  9999,2 50158  53.2188 158.3543 0001724  90.0186 270.1004 15.08832854127801,6917.902,95.438,540.96,538.575,0.0
50158.0,STARLINK-3309,PAYLOAD,2024-04-10 03:09:03,15.08844768,0.0001667,53.2182,155.0838,92.5223,267.596,7.7476e-05,9.45e-06,0.0,0 STARLINK-3309,1 50158U 21125C   24101.13128950  .00000945  00000-0  77476-4 0  9990,2 50158  53.2182 155.0838 0001667  92.5223 267.5960 15.08844768127911,6917.866,95.437,540.884,538.578,0.0
50158.0,STARLINK-3309,PAYLOAD,2024-04-10 12:41:22,15.08848998,0.0002063,53.2195,153.2982,96.0622,264.0606,-3.7829e-05,-8.9e-06,0.0,0 STARLINK-3309,1 50158U 21125C   24101.52872979 -.00000890  00000-0 -37829-4 0  9999,2 50158  53.2195 153.2982 0002063  96.0622 264.0606 15.08848998131124,6917.853,95.437,541.145,538.291,0.0
50158.0,STARLINK-3309,PAYLOAD,2024-04-10 20:38:17,15.08853889,0.0001545,53.2169,151.8088,78.9728,281.1438,4.2838e-05,3.94e-06,0.0,0 STARLINK-3309,1 50158U 21125C   24101.85992200  .00000394  00000-0  42838-4 0  9998,2 50158  53.2169 151.8088 0001545  78.9728 281.1438 15.08853889131179,6917.838,95.437,540.772,538.634,0.0
